[{"OBJECT_NAME":"PHISAT 2","OBJECT_ID":"2024-149C","EPOCH":"2026-03-09T18:55:12.732384","MEAN_MOTION":15.29548632,"ECCENTRICITY":0.00011753,"INCLINATION":97.3806,"RA_OF_ASC_NODE":148.6498,"ARG_OF_PERICENTER":168.623,"MEAN_ANOMALY":191.5037,"EPHEMERIS_TYPE":0,"CLASSIFICATION_TYPE":"U","NORAD_CAT_ID":60470,"ELEMENT_SET_NO":999,"REV_AT_EPOCH":8679,"BSTAR":0.00031420974,"MEAN_MOTION_DOT":8.925e-5,"MEAN_MOTION_DDOT":0},{"OBJECT_NAME":"STARLINK-35793","OBJECT_ID":"2025-303S","EPOCH":"2026-03-09T02:04:09.740640","MEAN_MOTION":15.27621373,"ECCENTRICITY":0.00018151,"INCLINATION":43.0009,"RA_OF_ASC_NODE":314.0538,"ARG_OF_PERICENTER":262.6995,"MEAN_ANOMALY":97.365,"EPHEMERIS_TYPE":0,"CLASSIFICATION_TYPE":"U","NORAD_CAT_ID":67179,"ELEMENT_SET_NO":999,"REV_AT_EPOCH":1264,"BSTAR":0.0012006356,"MEAN_MOTION_DOT":0.00032967,"MEAN_MOTION_DDOT":0}]
