PHISAT 2                
1 60470U 24149C   26068.78834181  .00008925  00000+0  31421-3 0  9996
2 60470  97.3806 148.6498 0001175 168.6230 191.5037 15.29548631 86792
STARLINK-35793          
1 67179U 25303S   26068.08622385  .00032967  00000+0  12006-2 0  9996
2 67179  43.0009 314.0538 0001815 262.6995  97.3650 15.27621373 12646
